<?xml version="1.0" encoding="UTF-8" standalone="yes"?>
<quakeml xmlns="http://quakeml.org/xmlns/quakeml/1.0">
<eventParameters publicID="smi:geonet.org.nz/quakeml/1.0.1">
<event publicID="smi:geonet.org.nz/event/2737452g">
<type>earthquake</type>
<preferredOriginID>smi:geonet.org.nz/ori/363892/GROPE</preferredOriginID>
<preferredMagnitudeID>smi:geonet.org.nz/mag/363892/GROPE/ML</preferredMagnitudeID>
<description>
<text>felt</text>
<type>felt report</type>
</description>
<origin publicID="smi:geonet.org.nz/ori/363892/GROPE">
<type>hypocenter</type>
<evaluationMode>manual</evaluationMode>
<evaluationStatus>confirmed</evaluationStatus>
<referenceSystemID>smi:urn:ogc:def:crs:EPSG:4272</referenceSystemID>
<time>
<value>2007-05-12T07:41:04.874Z</value>
<uncertainty>0.11299</uncertainty>
</time>
<latitude>
<value>-40.60804</value>
<uncertainty>0.00739</uncertainty>
</latitude>
<longitude>
<value>176.13933</value>
<uncertainty>0.01751</uncertainty>
</longitude>
<depth>
<value>17.9463</value>
<uncertainty>1.5449</uncertainty>
</depth>
<depthType>from location</depthType>
<quality>
<azimuthalGap>88</azimuthalGap>
<minimumDistance>12.17</minimumDistance>
<maximumDistance>242.27</maximumDistance>
<usedPhaseCount>47</usedPhaseCount>
<usedStationCount>41</usedStationCount>
<standardError>0.29015</standardError>
</quality>
<arrival weight="0.42">
<pickID>smi:geonet.org.nz/pick/4965408</pickID>
<phase>S*</phase>
<azimuth>132</azimuth>
<distance>12.1208</distance>
<residual>0.579</residual>
</arrival>
<arrival weight="0.29">
<pickID>smi:geonet.org.nz/pick/4965411</pickID>
<phase>S*</phase>
<azimuth>346</azimuth>
<distance>62.7168</distance>
<residual>-2.137</residual>
</arrival>
<arrival weight="0.95">
<pickID>smi:geonet.org.nz/pick/4965412</pickID>
<phase>P*</phase>
<azimuth>203</azimuth>
<distance>95.8544</distance>
<residual>0.72</residual>
</arrival>
<arrival weight="0.49">
<pickID>smi:geonet.org.nz/pick/4965413</pickID>
<phase>P*</phase>
<azimuth>23</azimuth>
<distance>65.3856</distance>
<residual>-0.16</residual>
</arrival>
<arrival weight="0.42">
<pickID>smi:geonet.org.nz/pick/4965414</pickID>
<phase>S*</phase>
<azimuth>23</azimuth>
<distance>65.3856</distance>
<residual>0.024</residual>
</arrival>
<arrival weight="0.47">
<pickID>smi:geonet.org.nz/pick/4965415</pickID>
<phase>P*</phase>
<azimuth>238</azimuth>
<distance>106.196</distance>
<residual>0.098</residual>
</arrival>
<arrival weight="0.93">
<pickID>smi:geonet.org.nz/pick/4965416</pickID>
<phase>P*</phase>
<azimuth>220</azimuth>
<distance>116.982</distance>
<residual>-0.433</residual>
</arrival>
<arrival weight="0.22">
<pickID>smi:geonet.org.nz/pick/4965417</pickID>
<phase>P*</phase>
<azimuth>221</azimuth>
<distance>81.5096</distance>
<residual>1.091</residual>
</arrival>
<arrival weight="0.97">
<pickID>smi:geonet.org.nz/pick/4965418</pickID>
<phase>P*</phase>
<azimuth>215</azimuth>
<distance>104.973</distance>
<residual>0.12</residual>
</arrival>
<arrival weight="0.95">
<pickID>smi:geonet.org.nz/pick/4965419</pickID>
<phase>P*</phase>
<azimuth>44</azimuth>
<distance>88.6264</distance>
<residual>-0.728</residual>
</arrival>
<arrival weight="0.41">
<pickID>smi:geonet.org.nz/pick/4965420</pickID>
<phase>S*</phase>
<azimuth>44</azimuth>
<distance>88.6264</distance>
<residual>0.954</residual>
</arrival>
<arrival weight="0.35">
<pickID>smi:geonet.org.nz/pick/4965421</pickID>
<phase>PN</phase>
<azimuth>11</azimuth>
<distance>162.797</distance>
<residual>-1.005</residual>
</arrival>
<arrival weight="0.46">
<pickID>smi:geonet.org.nz/pick/4965422</pickID>
<phase>PN</phase>
<azimuth>314</azimuth>
<distance>136.442</distance>
<residual>0.657</residual>
</arrival>
<arrival weight="0.41">
<pickID>smi:geonet.org.nz/pick/4965423</pickID>
<phase>S*</phase>
<azimuth>33</azimuth>
<distance>27.0216</distance>
<residual>0.381</residual>
</arrival>
<arrival weight="0.49">
<pickID>smi:geonet.org.nz/pick/4965424</pickID>
<phase>P*</phase>
<azimuth>33</azimuth>
<distance>27.0216</distance>
<residual>0.031</residual>
</arrival>
<arrival weight="0.6">
<pickID>smi:geonet.org.nz/pick/4965425</pickID>
<phase>P*</phase>
<azimuth>236</azimuth>
<distance>137.888</distance>
<residual>-0.389</residual>
</arrival>
<arrival weight="0.9">
<pickID>smi:geonet.org.nz/pick/4965426</pickID>
<phase>P*</phase>
<azimuth>230</azimuth>
<distance>139</distance>
<residual>-0.442</residual>
</arrival>
<arrival weight="0.48">
<pickID>smi:geonet.org.nz/pick/4965427</pickID>
<phase>P*</phase>
<azimuth>254</azimuth>
<distance>107.642</distance>
<residual>0.137</residual>
</arrival>
<arrival weight="0.93">
<pickID>smi:geonet.org.nz/pick/4965428</pickID>
<phase>PN</phase>
<azimuth>346</azimuth>
<distance>137.221</distance>
<residual>-0.341</residual>
</arrival>
<arrival weight="0.92">
<pickID>smi:geonet.org.nz/pick/4965429</pickID>
<phase>P*</phase>
<azimuth>240</azimuth>
<distance>139.667</distance>
<residual>-0.43</residual>
</arrival>
<arrival weight="0.86">
<pickID>smi:geonet.org.nz/pick/4965431</pickID>
<phase>PN</phase>
<azimuth>344</azimuth>
<distance>154.346</distance>
<residual>0.298</residual>
</arrival>
<arrival weight="0.52">
<pickID>smi:geonet.org.nz/pick/4965432</pickID>
<phase>PN</phase>
<azimuth>342</azimuth>
<distance>149.453</distance>
<residual>0.231</residual>
</arrival>
<arrival weight="0.42">
<pickID>smi:geonet.org.nz/pick/4965433</pickID>
<phase>PN</phase>
<azimuth>263</azimuth>
<distance>188.706</distance>
<residual>0.049</residual>
</arrival>
<arrival weight="0.19">
<pickID>smi:geonet.org.nz/pick/4965435</pickID>
<phase>PN</phase>
<azimuth>346</azimuth>
<distance>173.250</distance>
<residual>0.657</residual>
</arrival>
<arrival weight="0.58">
<pickID>smi:geonet.org.nz/pick/4965436</pickID>
<phase>PN</phase>
<azimuth>344</azimuth>
<distance>165.466</distance>
<residual>0.195</residual>
</arrival>
<arrival weight="0.73">
<pickID>smi:geonet.org.nz/pick/4965437</pickID>
<phase>PN</phase>
<azimuth>346</azimuth>
<distance>165.354</distance>
<residual>0.23</residual>
</arrival>
<arrival weight="0.8">
<pickID>smi:geonet.org.nz/pick/4965438</pickID>
<phase>PN</phase>
<azimuth>246</azimuth>
<distance>170.803</distance>
<residual>-0.274</residual>
</arrival>
<arrival weight="0.51">
<pickID>smi:geonet.org.nz/pick/4965439</pickID>
<phase>PN</phase>
<azimuth>340</azimuth>
<distance>180.811</distance>
<residual>0.127</residual>
</arrival>
<arrival weight="0.74">
<pickID>smi:geonet.org.nz/pick/4965440</pickID>
<phase>PN</phase>
<azimuth>342</azimuth>
<distance>163.798</distance>
<residual>0.288</residual>
</arrival>
<arrival weight="0.2">
<pickID>smi:geonet.org.nz/pick/4965441</pickID>
<phase>PN</phase>
<azimuth>344</azimuth>
<distance>172.138</distance>
<residual>0.391</residual>
</arrival>
<arrival weight="0.85">
<pickID>smi:geonet.org.nz/pick/4965443</pickID>
<phase>PN</phase>
<azimuth>335</azimuth>
<distance>161.240</distance>
<residual>0.375</residual>
</arrival>
<arrival weight="0.42">
<pickID>smi:geonet.org.nz/pick/4965445</pickID>
<phase>PN</phase>
<azimuth>324</azimuth>
<distance>202.606</distance>
<residual>0.304</residual>
</arrival>
<arrival weight="0.9">
<pickID>smi:geonet.org.nz/pick/4965448</pickID>
<phase>PN</phase>
<azimuth>337</azimuth>
<distance>147.229</distance>
<residual>0.232</residual>
</arrival>
<arrival weight="0.56">
<pickID>smi:geonet.org.nz/pick/4965451</pickID>
<phase>P*</phase>
<azimuth>237</azimuth>
<distance>143.893</distance>
<residual>-0.865</residual>
</arrival>
<arrival weight="0.52">
<pickID>smi:geonet.org.nz/pick/4965452</pickID>
<phase>PN</phase>
<azimuth>341</azimuth>
<distance>153.790</distance>
<residual>0.398</residual>
</arrival>
<arrival weight="0.42">
<pickID>smi:geonet.org.nz/pick/4965458</pickID>
<phase>S*</phase>
<azimuth>356</azimuth>
<distance>45.0360</distance>
<residual>-0.833</residual>
</arrival>
<arrival weight="0.48">
<pickID>smi:geonet.org.nz/pick/4965459</pickID>
<phase>P*</phase>
<azimuth>356</azimuth>
<distance>45.0360</distance>
<residual>-0.736</residual>
</arrival>
<arrival weight="0.06">
<pickID>smi:geonet.org.nz/pick/4965475</pickID>
<phase>PN</phase>
<azimuth>253</azimuth>
<distance>242.305</distance>
<residual>-0.172</residual>
</arrival>
<arrival weight="0.44">
<pickID>smi:geonet.org.nz/pick/6285860</pickID>
<phase>P*</phase>
<azimuth>263</azimuth>
<distance>47.8160</distance>
<residual>0.47</residual>
</arrival>
<arrival weight="0.29">
<pickID>smi:geonet.org.nz/pick/6285861</pickID>
<phase>S*</phase>
<azimuth>263</azimuth>
<distance>47.8160</distance>
<residual>0.682</residual>
</arrival>
<arrival weight="0.1">
<pickID>smi:geonet.org.nz/pick/6285862</pickID>
<phase>P*</phase>
<azimuth>346</azimuth>
<distance>62.7168</distance>
<residual>-1.018</residual>
</arrival>
<arrival weight="0.51">
<pickID>smi:geonet.org.nz/pick/6285863</pickID>
<phase>PN</phase>
<azimuth>341</azimuth>
<distance>158.238</distance>
<residual>0.328</residual>
</arrival>
<arrival weight="0.19">
<pickID>smi:geonet.org.nz/pick/6285865</pickID>
<phase>PN</phase>
<azimuth>231</azimuth>
<distance>205.498</distance>
<residual>-0.491</residual>
</arrival>
<arrival weight="0.15">
<pickID>smi:geonet.org.nz/pick/6285866</pickID>
<phase>PN</phase>
<azimuth>359</azimuth>
<distance>190.597</distance>
<residual>-0.581</residual>
</arrival>
<arrival weight="0.41">
<pickID>smi:geonet.org.nz/pick/6285868</pickID>
<phase>PN</phase>
<azimuth>243</azimuth>
<distance>206.165</distance>
<residual>-0.556</residual>
</arrival>
<arrival weight="0.02">
<pickID>smi:geonet.org.nz/pick/6285871</pickID>
<phase>PN</phase>
<azimuth>236</azimuth>
<distance>226.514</distance>
<residual>-0.352</residual>
</arrival>
<arrival weight="0.06">
<pickID>smi:geonet.org.nz/pick/6285887</pickID>
<phase>P*</phase>
<azimuth>238</azimuth>
<distance>61.8272</distance>
<residual>1.295</residual>
</arrival>
<stationMagnitude>
<id>smi:geonet.org.nz/stnmag/363892/GROPE/ML/13967462</id>
<mag>
<value>4.392</value>
</mag>
<type>ML</type>
<waveformID channelCode="HHZ" stationCode="BFZ" networkCode="NZ"/>
</stationMagnitude>
<stationMagnitude>
<id>smi:geonet.org.nz/stnmag/363892/GROPE/ML/13967467</id>
<mag>
<value>4.439</value>
</mag>
<type>ML</type>
<stationAmplitudeID>smi:geonet.org.nz/amp/13967467</stationAmplitudeID>
<waveformID channelCode="HHN" stationCode="BFZ" networkCode="NZ"/>
</stationMagnitude>
<stationMagnitude>
<id>smi:geonet.org.nz/stnmag/363892/GROPE/ML/13967471</id>
<mag>
<value>4.263</value>
</mag>
<type>ML</type>
<stationAmplitudeID>smi:geonet.org.nz/amp/13967471</stationAmplitudeID>
<waveformID channelCode="HHE" stationCode="BFZ" networkCode="NZ"/>
</stationMagnitude>
<stationMagnitude>
<id>smi:geonet.org.nz/stnmag/363892/GROPE/ML/13967474</id>
<mag>
<value>3.961</value>
</mag>
<type>ML</type>
<waveformID channelCode="HHZ" stationCode="MRZ" networkCode="NZ"/>
</stationMagnitude>
<stationMagnitude>
<id>smi:geonet.org.nz/stnmag/363892/GROPE/ML/13967479</id>
<mag>
<value>4.126</value>
</mag>
<type>ML</type>
<stationAmplitudeID>smi:geonet.org.nz/amp/13967479</stationAmplitudeID>
<waveformID channelCode="HHN" stationCode="MRZ" networkCode="NZ"/>
</stationMagnitude>
<stationMagnitude>
<id>smi:geonet.org.nz/stnmag/363892/GROPE/ML/13967483</id>
<mag>
<value>4.274</value>
</mag>
<type>ML</type>
<stationAmplitudeID>smi:geonet.org.nz/amp/13967483</stationAmplitudeID>
<waveformID channelCode="HHE" stationCode="MRZ" networkCode="NZ"/>
</stationMagnitude>
<stationMagnitude>
<id>smi:geonet.org.nz/stnmag/363892/GROPE/ML/13967486</id>
<mag>
<value>4.735</value>
</mag>
<type>ML</type>
<waveformID channelCode="HHZ" stationCode="TSZ" networkCode="NZ"/>
</stationMagnitude>
<stationMagnitude>
<id>smi:geonet.org.nz/stnmag/363892/GROPE/ML/13967491</id>
<mag>
<value>4.759</value>
</mag>
<type>ML</type>
<stationAmplitudeID>smi:geonet.org.nz/amp/13967491</stationAmplitudeID>
<waveformID channelCode="HHN" stationCode="TSZ" networkCode="NZ"/>
</stationMagnitude>
<stationMagnitude>
<id>smi:geonet.org.nz/stnmag/363892/GROPE/ML/13967495</id>
<mag>
<value>4.599</value>
</mag>
<type>ML</type>
<stationAmplitudeID>smi:geonet.org.nz/amp/13967495</stationAmplitudeID>
<waveformID channelCode="HHE" stationCode="TSZ" networkCode="NZ"/>
</stationMagnitude>
<stationMagnitude>
<id>smi:geonet.org.nz/stnmag/363892/GROPE/ML/13967498</id>
<mag>
<value>4.471</value>
</mag>
<type>ML</type>
<waveformID channelCode="EHZ" stationCode="TRWZ" networkCode="NZ"/>
</stationMagnitude>
<stationMagnitude>
<id>smi:geonet.org.nz/stnmag/363892/GROPE/ML/13967503</id>
<mag>
<value>4.339</value>
</mag>
<type>ML</type>
<stationAmplitudeID>smi:geonet.org.nz/amp/13967503</stationAmplitudeID>
<waveformID channelCode="EHN" stationCode="TRWZ" networkCode="NZ"/>
</stationMagnitude>
<stationMagnitude>
<id>smi:geonet.org.nz/stnmag/363892/GROPE/ML/13967507</id>
<mag>
<value>4.523</value>
</mag>
<type>ML</type>
<stationAmplitudeID>smi:geonet.org.nz/amp/13967507</stationAmplitudeID>
<waveformID channelCode="EHE" stationCode="TRWZ" networkCode="NZ"/>
</stationMagnitude>
<stationMagnitude>
<id>smi:geonet.org.nz/stnmag/363892/GROPE/ML/13967522</id>
<mag>
<value>4.325</value>
</mag>
<type>ML</type>
<waveformID channelCode="EHZ" stationCode="CAW" networkCode="NZ"/>
</stationMagnitude>
<stationMagnitude>
<id>smi:geonet.org.nz/stnmag/363892/GROPE/ML/13967527</id>
<mag>
<value>4.209</value>
</mag>
<type>ML</type>
<stationAmplitudeID>smi:geonet.org.nz/amp/13967527</stationAmplitudeID>
<waveformID channelCode="EHN" stationCode="CAW" networkCode="NZ"/>
</stationMagnitude>
<stationMagnitude>
<id>smi:geonet.org.nz/stnmag/363892/GROPE/ML/13967531</id>
<mag>
<value>4.135</value>
</mag>
<type>ML</type>
<stationAmplitudeID>smi:geonet.org.nz/amp/13967531</stationAmplitudeID>
<waveformID channelCode="EHE" stationCode="CAW" networkCode="NZ"/>
</stationMagnitude>
<stationMagnitude>
<id>smi:geonet.org.nz/stnmag/363892/GROPE/ML/13967534</id>
<mag>
<value>4.369</value>
</mag>
<type>ML</type>
<waveformID channelCode="EHZ" stationCode="MSWZ" networkCode="NZ"/>
</stationMagnitude>
<stationMagnitude>
<id>smi:geonet.org.nz/stnmag/363892/GROPE/ML/13967539</id>
<mag>
<value>4.134</value>
</mag>
<type>ML</type>
<stationAmplitudeID>smi:geonet.org.nz/amp/13967539</stationAmplitudeID>
<waveformID channelCode="EHN" stationCode="MSWZ" networkCode="NZ"/>
</stationMagnitude>
<stationMagnitude>
<id>smi:geonet.org.nz/stnmag/363892/GROPE/ML/13967543</id>
<mag>
<value>4.276</value>
</mag>
<type>ML</type>
<stationAmplitudeID>smi:geonet.org.nz/amp/13967543</stationAmplitudeID>
<waveformID channelCode="EHE" stationCode="MSWZ" networkCode="NZ"/>
</stationMagnitude>
<stationMagnitude>
<id>smi:geonet.org.nz/stnmag/363892/GROPE/ML/13967546</id>
<mag>
<value>4.054</value>
</mag>
<type>ML</type>
<waveformID channelCode="EHZ" stationCode="MTW" networkCode="NZ"/>
</stationMagnitude>
<stationMagnitude>
<id>smi:geonet.org.nz/stnmag/363892/GROPE/ML/13967551</id>
<mag>
<value>4.294</value>
</mag>
<type>ML</type>
<stationAmplitudeID>smi:geonet.org.nz/amp/13967551</stationAmplitudeID>
<waveformID channelCode="EHN" stationCode="MTW" networkCode="NZ"/>
</stationMagnitude>
<stationMagnitude>
<id>smi:geonet.org.nz/stnmag/363892/GROPE/ML/13967555</id>
<mag>
<value>4.341</value>
</mag>
<type>ML</type>
<stationAmplitudeID>smi:geonet.org.nz/amp/13967555</stationAmplitudeID>
<waveformID channelCode="EHE" stationCode="MTW" networkCode="NZ"/>
</stationMagnitude>
<stationMagnitude>
<id>smi:geonet.org.nz/stnmag/363892/GROPE/ML/13967558</id>
<mag>
<value>4.298</value>
</mag>
<type>ML</type>
<waveformID channelCode="EHZ" stationCode="PAWZ" networkCode="NZ"/>
</stationMagnitude>
<stationMagnitude>
<id>smi:geonet.org.nz/stnmag/363892/GROPE/ML/13967563</id>
<mag>
<value>4.429</value>
</mag>
<type>ML</type>
<stationAmplitudeID>smi:geonet.org.nz/amp/13967563</stationAmplitudeID>
<waveformID channelCode="EHN" stationCode="PAWZ" networkCode="NZ"/>
</stationMagnitude>
<stationMagnitude>
<id>smi:geonet.org.nz/stnmag/363892/GROPE/ML/13967567</id>
<mag>
<value>4.37</value>
</mag>
<type>ML</type>
<stationAmplitudeID>smi:geonet.org.nz/amp/13967567</stationAmplitudeID>
<waveformID channelCode="EHE" stationCode="PAWZ" networkCode="NZ"/>
</stationMagnitude>
<stationMagnitude>
<id>smi:geonet.org.nz/stnmag/363892/GROPE/ML/13967570</id>
<mag>
<value>4.864</value>
</mag>
<type>ML</type>
<waveformID channelCode="HHZ" stationCode="PXZ" networkCode="NZ"/>
</stationMagnitude>
<stationMagnitude>
<id>smi:geonet.org.nz/stnmag/363892/GROPE/ML/13967575</id>
<mag>
<value>4.617</value>
</mag>
<type>ML</type>
<stationAmplitudeID>smi:geonet.org.nz/amp/13967575</stationAmplitudeID>
<waveformID channelCode="HHN" stationCode="PXZ" networkCode="NZ"/>
</stationMagnitude>
<stationMagnitude>
<id>smi:geonet.org.nz/stnmag/363892/GROPE/ML/13967579</id>
<mag>
<value>4.926</value>
</mag>
<type>ML</type>
<stationAmplitudeID>smi:geonet.org.nz/amp/13967579</stationAmplitudeID>
<waveformID channelCode="HHE" stationCode="PXZ" networkCode="NZ"/>
</stationMagnitude>
<stationMagnitude>
<id>smi:geonet.org.nz/stnmag/363892/GROPE/ML/13967582</id>
<mag>
<value>4.261</value>
</mag>
<type>ML</type>
<waveformID channelCode="HHZ" stationCode="BKZ" networkCode="NZ"/>
</stationMagnitude>
<stationMagnitude>
<id>smi:geonet.org.nz/stnmag/363892/GROPE/ML/13967587</id>
<mag>
<value>4.343</value>
</mag>
<type>ML</type>
<stationAmplitudeID>smi:geonet.org.nz/amp/13967587</stationAmplitudeID>
<waveformID channelCode="HHN" stationCode="BKZ" networkCode="NZ"/>
</stationMagnitude>
<stationMagnitude>
<id>smi:geonet.org.nz/stnmag/363892/GROPE/ML/13967591</id>
<mag>
<value>4.307</value>
</mag>
<type>ML</type>
<stationAmplitudeID>smi:geonet.org.nz/amp/13967591</stationAmplitudeID>
<waveformID channelCode="HHE" stationCode="BKZ" networkCode="NZ"/>
</stationMagnitude>
<stationMagnitude>
<id>smi:geonet.org.nz/stnmag/363892/GROPE/ML/13967594</id>
<mag>
<value>4.654</value>
</mag>
<type>ML</type>
<waveformID channelCode="HHZ" stationCode="WAZ" networkCode="NZ"/>
</stationMagnitude>
<stationMagnitude>
<id>smi:geonet.org.nz/stnmag/363892/GROPE/ML/13967599</id>
<mag>
<value>4.707</value>
</mag>
<type>ML</type>
<stationAmplitudeID>smi:geonet.org.nz/amp/13967599</stationAmplitudeID>
<waveformID channelCode="HHN" stationCode="WAZ" networkCode="NZ"/>
</stationMagnitude>
<stationMagnitude>
<id>smi:geonet.org.nz/stnmag/363892/GROPE/ML/13967603</id>
<mag>
<value>4.673</value>
</mag>
<type>ML</type>
<stationAmplitudeID>smi:geonet.org.nz/amp/13967603</stationAmplitudeID>
<waveformID channelCode="HHE" stationCode="WAZ" networkCode="NZ"/>
</stationMagnitude>
<stationMagnitude>
<id>smi:geonet.org.nz/stnmag/363892/GROPE/ML/13967618</id>
<mag>
<value>3.699</value>
</mag>
<type>ML</type>
<waveformID channelCode="HNZ" stationCode="WEL" networkCode="NZ"/>
</stationMagnitude>
<stationMagnitude>
<id>smi:geonet.org.nz/stnmag/363892/GROPE/ML/13967623</id>
<mag>
<value>3.993</value>
</mag>
<type>ML</type>
<stationAmplitudeID>smi:geonet.org.nz/amp/13967623</stationAmplitudeID>
<waveformID channelCode="HNN" stationCode="WEL" networkCode="NZ"/>
</stationMagnitude>
<stationMagnitude>
<id>smi:geonet.org.nz/stnmag/363892/GROPE/ML/13967627</id>
<mag>
<value>4.09</value>
</mag>
<type>ML</type>
<stationAmplitudeID>smi:geonet.org.nz/amp/13967627</stationAmplitudeID>
<waveformID channelCode="HNE" stationCode="WEL" networkCode="NZ"/>
</stationMagnitude>
<stationMagnitude>
